{
    "links": {
        "self": "http://www.neowsapp.com/rest/v1/neo/3837531?api_key=iIulBulltgU6a56xZRHN4H3l9WmuAYTsLGpBGhQ2"
    },
    "id": "3837531",
    "neo_reference_id": "3837531",
    "name": "(2018 YS2)",
    "designation": "2018 YS2",
    "nasa_jpl_url": "http://ssd.jpl.nasa.gov/sbdb.cgi?sstr=3837531",
    "absolute_magnitude_h": 24.5,
    "estimated_diameter": {
        "kilometers": {
            "estimated_diameter_min": 0.0334622374,
            "estimated_diameter_max": 0.0748238376
        },
        "meters": {
            "estimated_diameter_min": 33.4622374455,
            "estimated_diameter_max": 74.8238376074
        },
        "miles": {
            "estimated_diameter_min": 0.0207924639,
            "estimated_diameter_max": 0.0464933628
        },
        "feet": {
            "estimated_diameter_min": 109.7842471007,
            "estimated_diameter_max": 245.4850393757
        }
    },
    "is_potentially_hazardous_asteroid": false,
    "close_approach_data": [
        {
            "close_approach_date": "2019-02-08",
            "close_approach_date_full": "2019-Feb-08 18:14",
            "epoch_date_close_approach": 1549649640000,
            "relative_velocity": {
                "kilometers_per_second": "4.7031169756",
                "kilometers_per_hour": "16931.2211122373",
                "miles_per_hour": "10520.4023627677"
            },
            "miss_distance": {
                "astronomical": "0.0818854996",
                "lunar": "31.8534593444",
                "kilometers": "12249896.324045852",
                "miles": "7611732.6150306776"
            },
            "orbiting_body": "Earth"
        }
    ],
    "orbital_data": {
        "orbit_id": "2",
        "orbit_determination_date": "2019-01-09 07:17:07",
        "first_observation_date": "2018-12-31",
        "last_observation_date": "2019-01-08",
        "data_arc_in_days": 8,
        "observations_used": 21,
        "orbit_uncertainty": "8",
        "minimum_orbit_intersection": ".0798811",
        "jupiter_tisserand_invariant": "4.263",
        "epoch_osculation": "2458486.5",
        "eccentricity": ".3574703036014495",
        "semi_major_axis": "1.611935318531989",
        "inclination": "5.466719561737378",
        "ascending_node_longitude": "281.0698690201007",
        "orbital_period": "747.5148822935835",
        "perihelion_distance": "1.03571631083046",
        "perihelion_argument": "228.8086792345863",
        "aphelion_distance": "2.188154326233519",
        "perihelion_time": "2458533.634898237619",
        "mean_anomaly": "337.3000327251298",
        "mean_motion": ".4815957628768807",
        "equinox": "J2000",
        "orbit_class": {
            "orbit_class_type": "AMO",
            "orbit_class_description": "Near-Earth asteroid orbits similar to that of 1221 Amor",
            "orbit_class_range": "1.017 AU < q (perihelion) < 1.3 AU"
        }
    },
    "is_sentry_object": false
}